MOZHAETS 4 (RS-22)      
1 27939U 03042A   25342.99095481  .00001760  00000+0  28232-3 0  9993
2 27939  98.3363 157.0913 0011859 146.9659   4.6801 14.72953609187544
IRS-P6 (RESOURCESAT-1)  
1 28051U 03046A   25343.02259655  .00000188  00000+0  76897-4 0  9997
2 28051  98.2177  23.6015 0063903 191.8582 232.2748 14.36071884153238
SAUDISAT 2              
1 28371U 04025F   25342.95629928  .00000557  00000+0  13582-3 0  9996
2 28371  98.5417 333.1415 0025159 158.5417 201.6840 14.56517447138052
COSMOS 2407             
1 28380U 04028A   25342.66734910  .00000109  00000+0  95579-4 0  9995
2 28380  82.9612 215.9077 0040444  65.8914 346.4710 13.76313059 73677
COSMOS 2414             
1 28521U 05002A   25342.92652465  .00000100  00000+0  70395-4 0  9998
2 28521  82.9495 187.5434 0040674 150.3858 209.9621 13.87902188 57424
INMARSAT 4-F1           
1 28628U 05009A   25342.80407200  .00000033  00000+0  00000+0 0  9991
2 28628   4.9133  42.5793 0003282 219.6856 283.1117  1.00271845 75766
HAMSAT (VO-52)          
1 28650U 05017B   25342.97853495  .00007877  00000+0  52057-3 0  9990
2 28650  98.0029 353.1430 0019371 324.4040  35.5893 15.07541093118084
NOAA 18                 
1 28654U 05018A   25342.94851444  .00000244  00000+0  15216-3 0  9991
2 28654  98.8298  60.2581 0013670 335.3390  24.7127 14.13679726 59436
SJ-7                    
1 28737U 05024A   25342.96308265  .00010135  00000+0  49886-3 0  9990
2 28737  97.7475   3.2033 0016314 337.4287  22.6226 15.18080288119134
CUBESAT XI-V            
1 28895U 05043F   25342.97463591  .00002688  00000+0  43703-3 0  9997
2 28895  98.2724 129.9889 0015414  89.4547 270.8425 14.71875730 73768
CLOUDSAT                
1 29107U 06016A   25342.94754742  .00002015  00000+0  23831-3 0  9997
2 29107  98.4137   4.5311 0004421 217.1073 142.9835 14.85864864 46252
CALIPSO                 
1 29108U 06016B   25343.00280842  .00002001  00000+0  35171-3 0  9996
2 29108  98.4520 347.1933 0001459 103.9995 256.1372 14.68825408 45130
HINODE (SOLAR-B)        
1 29479U 06041A   25342.94157388  .00001159  00000+0  20893-3 0  9993
2 29479  98.0652 356.8396 0017799 167.5914 192.5733 14.68292012 26956
METOP-A                 
1 29499U 06044A   25342.92198354  .00002467  00000+0  29354-3 0  9998
2 29499  98.3300  78.8920 0175577 316.0517 159.7620 14.75001119997393
SHIJIAN-6 02B (SJ-6 02B)
1 29506U 06046B   25342.95353292  .00002313  00000+0  18798-3 0  9996
2 29506  97.6872   8.5828 0014446 349.7826  10.3102 15.00509423 42206
DMSP 5D-3 F17 (USA 191) 
1 29522U 06050A   25342.95200597  .00000258  00000+0  15613-3 0  9997
2 29522  98.7393 348.4200 0009276 236.5892 123.4395 14.14916948985513
LAPAN-TUBSAT            
1 29709U 07001A   25342.94132001  .00001540  00000+0  18403-3 0  9999
2 29709  98.1252 333.0193 0013679  85.4098 274.8678 14.85663161 22904
HAIYANG-1B              
1 31113U 07010A   25342.95837925  .00000196  00000+0  90235-4 0  9999
2 31113  98.3310 327.3928 0014422  48.4955 311.7464 14.30962926973420
BEIDOU-2 M1             
1 31115U 07011A   25342.23959749  .00000013  00000+0  00000+0 0  9996
2 31115  50.9972 225.6266 0002753  19.1754 340.9236  1.77349289 72767
CAPE-1                  
1 31130U 07012P   25342.90005997  .00003102  00000+0  57015-3 0  9999
2 31130  98.4236 307.6516 0083479 305.7912  53.5550 14.64192644990493
CBERS 2B                
1 32062U 07042A   25342.83108800  .00000586  00000+0  19340-3 0  9998
2 32062  98.3712 286.0568 0030839 185.8961 228.7037 14.41338501957269
COSMO-SKYMED 2          
1 32376U 07059A   25342.98396744  .00000876  00000+0  11661-3 0  9996
2 32376  97.8812 164.3642 0001531  85.8713 274.2675 14.82158375973822
CARTOSAT-2A             
1 32783U 08021A   25343.15249029  .00000800  00000+0  11527-3 0  9999
2 32783  97.7931  33.0879 0012193  15.7620 344.3969 14.78925109950714
CUTE-1.7+APD II (CO-65) 
1 32785U 08021C   25343.18604358  .00007994  00000+0  53794-3 0  9997
2 32785  97.8093 316.2239 0008128 326.3796  33.6914 15.06975234956552
SEEDS II (CO-66)        
1 32791U 08021J   25342.90140867  .00021878  00000+0  87670-3 0  9990
2 32791  97.7449 327.9148 0000875 250.5935 109.5207 15.25049276958217
YUBILEINY (RS-30)       
1 32953U 08025A   25343.16952976  .00000058  00000+0  34305-3 0  9999
2 32953  82.5019 113.6436 0019165   8.8807 351.2608 12.43171803796081
FENGYUN 3A              
1 32958U 08026A   25342.80879603  .00000260  00000+0  14393-3 0  9990
2 32958  98.6693 282.4185 0008079 322.7735  37.2881 14.19512827908391
HUANJING 1A (HJ-1A)     
1 33320U 08041A   25343.18849185  .00002477  00000+0  30716-3 0  9994
2 33320  97.6540 331.6349 0020365  45.4668 314.8206 14.83376348930230
HUANJING 1B (HJ-1B)     
1 33321U 08041B   25343.21320898  .00002341  00000+0  29206-3 0  9996
2 33321  97.6396 335.3650 0038258  86.8036 273.7555 14.82807974930259
SHIJIAN-6 03A (SJ-6 03A)
1 33408U 08053A   25343.22410120  .00008690  00000+0  47275-3 0  9993
2 33408  97.8613   5.0449 0010844 310.8260  49.2030 15.14670229934183
SHIJIAN-6 03B (SJ-6 03B)
1 33409U 08053B   25343.20428576  .00000968  00000+0  75850-4 0  9997
2 33409  97.8666 354.9545 0019208 324.9637  35.0323 15.03339404934196
CHUANGXIN 1-02 (CX-1-02)
1 33434U 08056B   25343.20641847  .00000003  00000+0  18425-4 0  9991
2 33434  98.6323   6.1935 0013939 342.7571  17.3136 14.30101413891465
STARS (KUKAI)           
1 33498U 09002G   25342.78974893  .00008008  00000+0  75871-3 0  9995
2 33498  98.1379 277.8168 0010492  78.8869 281.3529 14.93843703910032
KKS-1 (KISEKI)          
1 33499U 09002H   25343.09716829  .00002564  00000+0  32670-3 0  9995
2 33499  98.1174 257.6401 0007798 175.9107 184.2171 14.82410977908022
NOAA 19                 
1 33591U 09005A   25343.19699381  .00000107  00000+0  80901-4 0  9997
2 33591  98.9772  48.7372 0013427 204.0953 155.9593 14.13435071867643
UK-DMC 2                
1 35683U 09041C   25342.98187877  .00001474  00000+0  22321-3 0  9998
2 35683  97.8563 117.9908 0001352  96.4562 263.6801 14.75608643878512
METEOR-M 1              
1 35865U 09049A   25342.89399792  .00000217  00000+0  11590-3 0  9999
2 35865  98.7127 302.0264 0002979 123.5658 236.5805 14.23094209842183
OCEANSAT-2              
1 35931U 09051A   25343.18765751 -.00000161  00000+0 -84705-4 0  9990
2 35931  98.2225 344.1486 0016356  54.3063 305.9624 13.99625369852752
SWISSCUBE               
1 35932U 09051B   25343.14342811  .00002007  00000+0  41057-3 0  9996
2 35932  98.4141 242.6591 0008090  83.7988 276.4134 14.61940386861385
BEESAT-1                
1 35933U 09051C   25342.99016663  .00001678  00000+0  35001-3 0  9997
2 35933  98.4072 242.5220 0006532  95.5201 264.6744 14.61262739861403
ITUPSAT1                
1 35935U 09051E   25342.67944670  .00002148  00000+0  45735-3 0  9990
2 35935  98.4167 241.5889 0008598 105.7568 254.4580 14.60020211860932
DMSP 5D-3 F18 (USA 210) 
1 35951U 09057A   25342.90698242  .00000396  00000+0  22834-3 0  9999
2 35951  98.8830 319.3270 0012105  72.7402 287.5094 14.14765421832684
PROBA-2                 
1 36037U 09059B   25343.06703191  .00000558  00000+0  14087-3 0  9996
2 36037  98.2374 164.1020 0013823 143.9283 216.2850 14.54706514853888
YAOGAN-7                
1 36110U 09069A   25342.63378110  .00001367  00000+0  19724-3 0  9992
2 36110  98.0303 224.4054 0023506 295.2737  64.6037 14.77723918861480
XIWANG-1 (HOPE-1)       
1 36122U 09072B   25342.94166840 -.00000140  00000+0 -25056-3 0  9993
2 36122 100.3770 295.0511 0007140 312.2219  47.8288 13.16431151767978
RADUGA-1M 2             
1 36358U 10002A   25343.01902919 -.00000206  00000+0  00000+0 0  9993
2 36358   3.1258  81.2513 0007901 224.5430 261.1228  0.98967227 48142
COSMOS 2463             
1 36519U 10017A   25343.15895064  .00000078  00000+0  69531-4 0  9990
2 36519  82.9615  29.3439 0034867 298.3646  82.3141 13.71648739781883
CARTOSAT-2B             
1 36795U 10035A   25343.19167052  .00001237  00000+0  17487-3 0  9999
2 36795  97.7853  32.3374 0012951  87.8656 272.4039 14.78782201831774
AISSAT 1                
1 36797U 10035C   25343.16437256  .00004116  00000+0  36990-3 0  9993
2 36797  98.1096 230.6172 0008456 335.4740  24.6077 14.96249780835795
TISAT 1                 
1 36799U 10035E   25342.77046425  .00028056  00000+0  11848-2 0  9998
2 36799  98.0598 268.8689 0002832 140.9224 219.2216 15.23227771838637
YAOGAN-10               
1 36834U 10038A   25342.99905837  .00002542  00000+0  30748-3 0  9999
2 36834  97.9141   2.8470 0001396  82.2182 334.9652 14.84583858828981
SHIJIAN-6 04B (SJ-6 04B)
1 37180U 10051B   25343.19109302  .00001683  00000+0  14456-3 0  9998
2 37180  97.8669 341.7229 0010112 226.4441 133.5942 14.98809090827217
FENGYUN 3B              
1 37214U 10059A   25343.21399972 -.00000104  00000+0 -30527-4 0  9998
2 37214  98.9906  23.1664 0022242   7.8071  79.5097 14.14786993780562
COSMO-SKYMED 4          
1 37216U 10060A   25343.19916615  .00001023  00000+0  13496-3 0  9992
2 37216  97.8802 164.5753 0001386  78.4136 281.7233 14.82161696816424
O/OREOS (USA 219)       
1 37224U 10062C   25342.87352595  .00003756  00000+0  36968-3 0  9992
2 37224  71.9699 151.1034 0012958  65.7749 294.4773 14.92637724 88231
ELEKTRO-L 1 (GOMS 2)    
1 37344U 11001A   25342.05868231 -.00000282  00000+0  00000+0 0  9994
2 37344   9.2531  56.4287 0001924  35.4078 321.8103  1.00206802 54565
RESOURCESAT-2           
1 37387U 11015A   25343.19611735  .00000232  00000+0  12605-3 0  9999
2 37387  98.7881  46.7638 0006589  51.7801 308.3969 14.21594911759180
YOUTHSAT                
1 37388U 11015B   25342.94928073  .00000380  00000+0  17787-3 0  9998
2 37388  98.3462 320.8413 0014445 176.0928 243.8667 14.25516833760530
APRIZESAT 6             
1 37793U 11044F   25342.75055006  .00002221  00000+0  32191-3 0  9998
2 37793  98.2454 244.2919 0042984 336.8910  91.6214 14.76522320769042
